UNKNOWN                 
1 81605U          26062.17052161 -.00001881  00000+0 -72951-2 0  9994
2 81605  56.4348 345.6997 0150635 250.6305 107.8283 12.81434570196512
UNKNOWN                 
1 81614U          26062.92334565  .00006671  00000+0  40930-1 0  9999
2 81614 101.8470  61.3105 0365131 356.6923   3.1739 12.38114321548020
UNKNOWN                 
1 81615U          26063.43794592  .00004380  00000+0  15798-2 0  9997
2 81615  65.8259 231.7053 0766992  98.3491 270.5180 13.34441619593761
UNKNOWN                 
1 81617U          26064.44496490  .00000358  00000+0  23770-2 0  9997
2 81617 101.2672 240.3135 0031991  80.7272 279.7420 12.57601552563505
UNKNOWN                 
1 81624U          26057.07858416  .00004588  00000+0  72056-3 0  9997
2 81624  66.9770 318.5702 0063505 176.9023 183.2505 14.72174479650798
UNKNOWN                 
1 81640U          26064.10803110  .00000701  00000+0  69280-3 0  9996
2 81640  65.8277 323.5439 0979095  44.0096 323.4758 12.57296359520432
UNKNOWN                 
1 81652U          26063.25408644  .00000528  00000+0  67858-3 0  9993
2 81652 102.1435 333.6546 0363333 177.4559 335.5877 13.44496347589600
UNKNOWN                 
1 81667U          26064.48240196  .00004560  00000+0  12195-2 0  9994
2 81667  74.0396 241.6576 0014946 155.6898 204.4970 14.48514448468621
UNKNOWN                 
1 81674U          26057.96617279  .00001014  00000+0  61639-3 0  9996
2 81674  66.8236 172.2986 0024950 182.2064 291.0582 14.10128568624462
UNKNOWN                 
1 81683U          26064.39181009  .00005914  00000+0  12790-2 0  9994
2 81683  81.2163 208.1632 0023249  45.9952 314.3156 14.58020261647903
UNKNOWN                 
1 81745U          26061.08398206  .00003423  00000+0  10839-2 0  9990
2 81745  70.9991 213.7849 0002967  99.6396 260.5075 14.40797620641176
UNKNOWN                 
1 81775U          26061.21342033  .00007226  00000+0  21897-2 0  9996
2 81775  82.9210 158.3653 0013053   2.9600 357.1668 14.42122005636723
